MESON-1                 
1 59131U 24043AK  26068.90019075  .00008544  00000+0  29748-3 0  9998
2 59131  97.5469 205.2839 0009545 227.1432 132.9007 15.29893494111890
STARLINK-32472          
1 61846U 24202B   26068.44285263 -.00000219  00000+0  15647-5 0  9991
2 61846  43.0028 228.6805 0001696 270.1435  89.9223 15.27577811 75413
